[{"OBJECT_NAME":"STARLINK-6098","OBJECT_ID":"2023-083AG","EPOCH":"2026-03-09T22:00:01.999584","MEAN_MOTION":15.09631398,"ECCENTRICITY":0.00020082,"INCLINATION":43.0008,"RA_OF_ASC_NODE":67.7459,"ARG_OF_PERICENTER":259.638,"MEAN_ANOMALY":48.5969,"EPHEMERIS_TYPE":0,"CLASSIFICATION_TYPE":"U","NORAD_CAT_ID":56906,"ELEMENT_SET_NO":999,"REV_AT_EPOCH":572,"BSTAR":0.004417048,"MEAN_MOTION_DOT":0.00072804,"MEAN_MOTION_DDOT":0},{"OBJECT_NAME":"OBJECT BS","OBJECT_ID":"2018-099BS","EPOCH":"2026-03-09T16:09:03.028608","MEAN_MOTION":15.13564051,"ECCENTRICITY":0.00072889,"INCLINATION":97.4457,"RA_OF_ASC_NODE":121.015,"ARG_OF_PERICENTER":347.6869,"MEAN_ANOMALY":12.4183,"EPHEMERIS_TYPE":0,"CLASSIFICATION_TYPE":"U","NORAD_CAT_ID":43822,"ELEMENT_SET_NO":999,"REV_AT_EPOCH":39116,"BSTAR":0.00035877018,"MEAN_MOTION_DOT":6.374e-5,"MEAN_MOTION_DDOT":0}]
